format  = 'OEF2.0'       ! file format
rectype = 'ML'           ! record type (1L/ML)
refsys  = ECLM J2000     ! default reference system
END_OF_HEADER
4
! Equinoctial elements: a, e*sin(LP), e*cos(LP), tan(i/2)*sin(LN), tan(i/2)*cos(LN), mean long.
 EQU   2.3609299776931216E+00  -0.086663167516758  -0.023897931819933    0.060514746365704   -0.015236133335165 105.0599501766464
 MJD     44440.219665872 TDT
 MAG   3.079  0.150
! Non-grav parameters: model used, actual number in use, dimension
 LSP   0  0    6
! RMS    2.07799E-09   3.36623E-08   3.23580E-08   3.36232E-08   3.30089E-08   2.85407E-06
! EIG   1.93658E-09   3.10325E-08   3.21062E-08   3.42031E-08   3.46932E-08   5.01486E-08
! WEA   0.01366  -0.05511   0.08238  -0.05792  -0.09710   0.98854
 COV   4.318026775539588E-18  7.725670968373575E-18  5.354760993757640E-18
 COV   7.098988602979956E-19 -5.420150381394845E-19  1.985972075786297E-15
 COV   1.133153750526383E-15  1.011388679679060E-16 -6.797381020555866E-18
 COV  -6.013496654459299E-18 -4.959279062488553E-15  1.047040610409095E-15
 COV  -2.853808741230934E-18 -4.452883806451470E-18  7.292559332499591E-15
 COV   1.130516830778950E-15  7.399748225608986E-17 -4.239826772972333E-15
 COV   1.089588790602259E-15 -7.770532671443106E-15  8.145687761935442E-12
 NOR   2.665685097349404E+17 -2.047871110856317E+15 -7.073901156754225E+14
 NOR  -4.081863233687144E+14 -3.254644005671335E+14 -6.612757367497101E+13
 NOR   9.091947241030698E+14 -8.525056616335172E+13  1.010307622145323E+13
 NOR   1.113050561415025E+13  1.145021210606329E+12  9.721529046076141E+14
 NOR  -2.911253492489062E+11 -2.192755282011755E+12 -7.520151085053777E+11
 NOR   8.905272450867145E+14 -5.695342329888344E+13  5.151187481155028E+11
 NOR   9.282678618052742E+14  9.439615924951984E+11  1.414256526391137E+11
